SAUDISAT 1C             
1 27607U 02058C   22321.08211095  .00000626  00000+0  10554-3 0  9994
2 27607  64.5540 194.7493 0081286 265.4414  93.7401 14.76417896 71113
SAUDISAT 2              
1 28371U 04025F   22321.34044668  .00000236  00000+0  66113-4 0  9998
2 28371  98.3996 278.5457 0025759 357.5996   2.5056 14.54651876975519
SAUDISAT 3              
1 31118U 07012B   22321.32174084  .00000297  00000+0  58265-4 0  9990
2 31118  97.9875 264.7974 0016456  70.7542 289.5443 14.69417816835601
PISAT                   
1 41784U 16059B   22320.69173638  .00000598  00000+0  12180-3 0  9993
2 41784  97.8982 357.9921 0032654  49.8896 310.5161 14.64105840327966
FLYING LAPTOP           
1 42831U 17042G   22321.51502069  .00001113  00000+0  11441-3 0  9999
2 42831  97.4029 166.9593 0012892 210.6239 149.4258 14.92121341290917
SALSAT                  
1 46495U 20068K   22320.83400124  .00002418  00000+0  17292-3 0  9993
2 46495  97.7457 262.3520 0018038 117.5205 242.7857 15.05310740117101
